{
    "links": {
        "self": "http://www.neowsapp.com/rest/v1/neo/3360542?api_key=iIulBulltgU6a56xZRHN4H3l9WmuAYTsLGpBGhQ2"
    },
    "id": "3360542",
    "neo_reference_id": "3360542",
    "name": "(2006 WX29)",
    "designation": "2006 WX29",
    "nasa_jpl_url": "http://ssd.jpl.nasa.gov/sbdb.cgi?sstr=3360542",
    "absolute_magnitude_h": 27.8,
    "estimated_diameter": {
        "kilometers": {
            "estimated_diameter_min": 0.0073207399,
            "estimated_diameter_max": 0.016369672
        },
        "meters": {
            "estimated_diameter_min": 7.3207398935,
            "estimated_diameter_max": 16.3696720474
        },
        "miles": {
            "estimated_diameter_min": 0.0045488955,
            "estimated_diameter_max": 0.0101716395
        },
        "feet": {
            "estimated_diameter_min": 24.0181762721,
            "estimated_diameter_max": 53.70627484
        }
    },
    "is_potentially_hazardous_asteroid": false,
    "close_approach_data": [
        {
            "close_approach_date": "2006-11-20",
            "close_approach_date_full": "2006-Nov-20 00:56",
            "epoch_date_close_approach": 1163984160000,
            "relative_velocity": {
                "kilometers_per_second": "21.348713046",
                "kilometers_per_hour": "76855.3669655629",
                "miles_per_hour": "47754.9362125744"
            },
            "miss_distance": {
                "astronomical": "0.0029184733",
                "lunar": "1.1352861137",
                "kilometers": "436597.389331871",
                "miles": "271289.0378909798"
            },
            "orbiting_body": "Moon"
        },
        {
            "close_approach_date": "2006-11-20",
            "close_approach_date_full": "2006-Nov-20 05:47",
            "epoch_date_close_approach": 1164001620000,
            "relative_velocity": {
                "kilometers_per_second": "21.1539831915",
                "kilometers_per_hour": "76154.3394894191",
                "miles_per_hour": "47319.3450010782"
            },
            "miss_distance": {
                "astronomical": "0.0022072796",
                "lunar": "0.8586317644",
                "kilometers": "330204.326654452",
                "miles": "205179.4542853576"
            },
            "orbiting_body": "Earth"
        },
        {
            "close_approach_date": "2077-06-02",
            "close_approach_date_full": "2077-Jun-02 03:47",
            "epoch_date_close_approach": 3389831220000,
            "relative_velocity": {
                "kilometers_per_second": "21.3611620279",
                "kilometers_per_hour": "76900.1833004033",
                "miles_per_hour": "47782.7833401867"
            },
            "miss_distance": {
                "astronomical": "0.02090631",
                "lunar": "8.13255459",
                "kilometers": "3127539.4455597",
                "miles": "1943362.89653586"
            },
            "orbiting_body": "Earth"
        },
        {
            "close_approach_date": "2165-09-28",
            "close_approach_date_full": "2165-Sep-28 03:38",
            "epoch_date_close_approach": 6177008280000,
            "relative_velocity": {
                "kilometers_per_second": "18.4665805934",
                "kilometers_per_hour": "66479.6901361216",
                "miles_per_hour": "41307.8941293029"
            },
            "miss_distance": {
                "astronomical": "0.3566223897",
                "lunar": "138.7261095933",
                "kilometers": "53349949.893429939",
                "miles": "33150121.6722095982"
            },
            "orbiting_body": "Earth"
        }
    ],
    "orbital_data": {
        "orbit_id": "7",
        "orbit_determination_date": "2017-04-06 09:07:31",
        "first_observation_date": "2006-11-23",
        "last_observation_date": "2006-11-25",
        "data_arc_in_days": 2,
        "observations_used": 15,
        "orbit_uncertainty": "8",
        "minimum_orbit_intersection": ".00135514",
        "jupiter_tisserand_invariant": "3.151",
        "epoch_osculation": "2454063.5",
        "eccentricity": ".7292232663331398",
        "semi_major_axis": "2.325905594146742",
        "inclination": "2.55514317638964",
        "ascending_node_longitude": "239.3027872044826",
        "orbital_period": "1295.646576148879",
        "perihelion_distance": ".6298011196005324",
        "perihelion_argument": "96.29536902156879",
        "aphelion_distance": "4.022010068692951",
        "perihelion_time": "2454015.641780926047",
        "mean_anomaly": "13.2975760394734",
        "mean_motion": ".2778535494378782",
        "equinox": "J2000",
        "orbit_class": {
            "orbit_class_type": "APO",
            "orbit_class_description": "Near-Earth asteroid orbits which cross the Earth’s orbit similar to that of 1862 Apollo",
            "orbit_class_range": "a (semi-major axis) > 1.0 AU; q (perihelion) < 1.017 AU"
        }
    },
    "is_sentry_object": false
}